{"type": "FeatureCollection", "features": [ {"type": "Feature", "properties": {"norad_id": 66917, "name": "HULIANWANG DIGUI-107", "group": "last-30-days", "lat": 14.269697049620481, "lon": -101.44686446083438, "alt_km": 884.126586237553, "timestamp": "2025-12-19T04:59:47.032525+00:00", "meta": {"OBJECT_NAME": "HULIANWANG DIGUI-107", "OBJECT_ID": "2025-285C", "EPOCH": "2025-12-18T21:23:48.278400", "MEAN_MOTION": 14.03662048, "ECCENTRICITY": 0.00074658, "INCLINATION": 50.0023, "RA_OF_ASC_NODE": 92.1721, "ARG_OF_PERICENTER": 306.0041, "MEAN_ANOMALY": 54.017, "EPHEMERIS_TYPE": 0, "CLASSIFICATION_TYPE": "U", "NORAD_CAT_ID": 66917, "ELEMENT_SET_NO": 999, "REV_AT_EPOCH": 177, "BSTAR": -1.968386e-05, "MEAN_MOTION_DOT": -1.82e-06, "MEAN_MOTION_DDOT": 0}, "tle": {"line1": "1 66917U 25285C   25352.89153100 -.00000182  00000+0 -19684-4 0  9999", "line2": "2 66917  50.0023  92.1721 0007465 306.0041  54.0170 14.03662048  1775"}}, "geometry": {"type": "Point", "coordinates": [-101.44686446083438, 14.269697049620481]}}, {"type": "Feature", "properties": {"norad_id": 66918, "name": "HULIANWANG DIGUI-108", "group": "last-30-days", "lat": 11.052968830040188, "lon": -98.56025993708178, "alt_km": 883.7862063246748, "timestamp": "2025-12-19T04:59:47.032536+00:00", "meta": {"OBJECT_NAME": "HULIANWANG DIGUI-108", "OBJECT_ID": "2025-285D", "EPOCH": "2025-12-18T21:22:34.027968", "MEAN_MOTION": 14.03601052, "ECCENTRICITY": 0.00065901, "INCLINATION": 50.0045, "RA_OF_ASC_NODE": 92.1712, "ARG_OF_PERICENTER": 300.5997, "MEAN_ANOMALY": 59.4257, "EPHEMERIS_TYPE": 0, "CLASSIFICATION_TYPE": "U", "NORAD_CAT_ID": 66918, "ELEMENT_SET_NO": 999, "REV_AT_EPOCH": 177, "BSTAR": -1.5553718e-05, "MEAN_MOTION_DOT": -1.76e-06, "MEAN_MOTION_DDOT": 0}, "tle": {"line1": "1 66918U 25285D   25352.89067162 -.00000176  00000+0 -15554-4 0  9997", "line2": "2 66918  50.0045  92.1712 0006590 300.5997  59.4257 14.03601052  1770"}}, "geometry": {"type": "Point", "coordinates": [-98.56025993708178, 11.052968830040188]}}, {"type": "Feature", "properties": {"norad_id": 66919, "name": "HULIANWANG DIGUI-109", "group": "last-30-days", "lat": 6.142209073422866, "lon": -94.31224997771022, "alt_km": 885.1262981132913, "timestamp": "2025-12-19T04:59:47.032546+00:00", "meta": {"OBJECT_NAME": "HULIANWANG DIGUI-109", "OBJECT_ID": "2025-285E", "EPOCH": "2025-12-18T23:03:16.908768", "MEAN_MOTION": 14.03725272, "ECCENTRICITY": 0.0007868, "INCLINATION": 50.0068, "RA_OF_ASC_NODE": 91.879, "ARG_OF_PERICENTER": 313.2656, "MEAN_ANOMALY": 46.7591, "EPHEMERIS_TYPE": 0, "CLASSIFICATION_TYPE": "U", "NORAD_CAT_ID": 66919, "ELEMENT_SET_NO": 999, "REV_AT_EPOCH": 178, "BSTAR": -1.9991972e-05, "MEAN_MOTION_DOT": -1.83e-06, "MEAN_MOTION_DDOT": 0}, "tle": {"line1": "1 66919U 25285E   25352.96061237 -.00000183  00000+0 -19992-4 0  9991", "line2": "2 66919  50.0068  91.8790 0007868 313.2656  46.7591 14.03725272  1782"}}, "geometry": {"type": "Point", "coordinates": [-94.31224997771022, 6.142209073422866]}}, {"type": "Feature", "properties": {"norad_id": 66920, "name": "HULIANWANG DIGUI-110", "group": "last-30-days", "lat": 2.6114825993502824, "lon": -91.32617969971321, "alt_km": 884.1001981062918, "timestamp": "2025-12-19T04:59:47.032556+00:00", "meta": {"OBJECT_NAME": "HULIANWANG DIGUI-110", "OBJECT_ID": "2025-285F", "EPOCH": "2025-12-18T21:19:26.640192", "MEAN_MOTION": 14.03681827, "ECCENTRICITY": 0.00055768, "INCLINATION": 50.0113, "RA_OF_ASC_NODE": 92.1696, "ARG_OF_PERICENTER": 310.1736, "MEAN_ANOMALY": 49.868, "EPHEMERIS_TYPE": 0, "CLASSIFICATION_TYPE": "U", "NORAD_CAT_ID": 66920, "ELEMENT_SET_NO": 999, "REV_AT_EPOCH": 177, "BSTAR": 9.6911373e-05, "MEAN_MOTION_DOT": 2e-08, "MEAN_MOTION_DDOT": 0}, "tle": {"line1": "1 66920U 25285F   25352.88850278  .00000002  00000+0  96911-4 0  9999", "line2": "2 66920  50.0113  92.1696 0005576 310.1736  49.8680 14.03681827  1772"}}, "geometry": {"type": "Point", "coordinates": [-91.32617969971321, 2.6114825993502824]}}, {"type": "Feature", "properties": {"norad_id": 66921, "name": "HULIANWANG DIGUI-111", "group": "last-30-days", "lat": -1.0294310057223506, "lon": -88.27419753174934, "alt_km": 885.2447438309473, "timestamp": "2025-12-19T04:59:47.032568+00:00", "meta": {"OBJECT_NAME": "HULIANWANG DIGUI-111", "OBJECT_ID": "2025-285G", "EPOCH": "2025-12-18T21:18:04.157568", "MEAN_MOTION": 14.03631209, "ECCENTRICITY": 0.00066385, "INCLINATION": 50.0116, "RA_OF_ASC_NODE": 92.1674, "ARG_OF_PERICENTER": 314.0418, "MEAN_ANOMALY": 45.994, "EPHEMERIS_TYPE": 0, "CLASSIFICATION_TYPE": "U", "NORAD_CAT_ID": 66921, "ELEMENT_SET_NO": 999, "REV_AT_EPOCH": 177, "BSTAR": -1.8724578e-05, "MEAN_MOTION_DOT": -1.81e-06, "MEAN_MOTION_DDOT": 0}, "tle": {"line1": "1 66921U 25285G   25352.88754812 -.00000181  00000+0 -18725-4 0  9994", "line2": "2 66921  50.0116  92.1674 0006638 314.0418  45.9940 14.03631209  1777"}}, "geometry": {"type": "Point", "coordinates": [-88.27419753174934, -1.0294310057223506]}}, {"type": "Feature", "properties": {"norad_id": 66922, "name": "HULIANWANG DIGUI-112", "group": "last-30-days", "lat": -4.840119261752124, "lon": -85.07808868883157, "alt_km": 885.8544023239147, "timestamp": "2025-12-19T04:59:47.032580+00:00", "meta": {"OBJECT_NAME": "HULIANWANG DIGUI-112", "OBJECT_ID": "2025-285H", "EPOCH": "2025-12-18T21:16:39.965088", "MEAN_MOTION": 14.03661124, "ECCENTRICITY": 0.00064809, "INCLINATION": 50.009, "RA_OF_ASC_NODE": 92.156, "ARG_OF_PERICENTER": 324.6343, "MEAN_ANOMALY": 35.4131, "EPHEMERIS_TYPE": 0, "CLASSIFICATION_TYPE": "U", "NORAD_CAT_ID": 66922, "ELEMENT_SET_NO": 999, "REV_AT_EPOCH": 177, "BSTAR": -3.339638e-06, "MEAN_MOTION_DOT": -1.57e-06, "MEAN_MOTION_DDOT": 0}, "tle": {"line1": "1 66922U 25285H   25352.88657367 -.00000157  00000+0 -33396-5 0  9997", "line2": "2 66922  50.0090  92.1560 0006480 324.6343  35.4131 14.03661124  1777"}}, "geometry": {"type": "Point", "coordinates": [-85.07808868883157, -4.840119261752124]}}, {"type": "Feature", "properties": {"norad_id": 66923, "name": "HULIANWANG DIGUI-113", "group": "last-30-days", "lat": -9.005106134993339, "lon": -81.51887060600512, "alt_km": 884.9269907577254, "timestamp": "2025-12-19T04:59:47.032591+00:00", "meta": {"OBJECT_NAME": "HULIANWANG DIGUI-113", "OBJECT_ID": "2025-285J", "EPOCH": "2025-12-18T22:57:38.506752", "MEAN_MOTION": 14.03699742, "ECCENTRICITY": 0.0005071, "INCLINATION": 50.0098, "RA_OF_ASC_NODE": 91.8616, "ARG_OF_PERICENTER": 319.4264, "MEAN_ANOMALY": 40.6262, "EPHEMERIS_TYPE": 0, "CLASSIFICATION_TYPE": "U", "NORAD_CAT_ID": 66923, "ELEMENT_SET_NO": 999, "REV_AT_EPOCH": 178, "BSTAR": 0.00020809201, "MEAN_MOTION_DOT": 1.78e-06, "MEAN_MOTION_DDOT": 0}, "tle": {"line1": "1 66923U 25285J   25352.95669568  .00000178  00000+0  20809-3 0  9996", "line2": "2 66923  50.0098  91.8616 0005071 319.4264  40.6262 14.03699742  1784"}}, "geometry": {"type": "Point", "coordinates": [-81.51887060600512, -9.005106134993339]}}, {"type": "Feature", "properties": {"norad_id": 66924, "name": "CZ-8A R/B", "group": "last-30-days", "lat": -49.13994118828904, "lon": -15.351699750136108, "alt_km": 850.3845830243326, "timestamp": "2025-12-19T04:59:47.032601+00:00", "meta": {"OBJECT_NAME": "CZ-8A R/B", "OBJECT_ID": "2025-285K", "EPOCH": "2025-12-18T16:03:20.083680", "MEAN_MOTION": 14.30504064, "ECCENTRICITY": 0.0119274, "INCLINATION": 50.0074, "RA_OF_ASC_NODE": 90.9153, "ARG_OF_PERICENTER": 127.6467, "MEAN_ANOMALY": 233.5342, "EPHEMERIS_TYPE": 0, "CLASSIFICATION_TYPE": "U", "NORAD_CAT_ID": 66924, "ELEMENT_SET_NO": 999, "REV_AT_EPOCH": 177, "BSTAR": 5.1962964e-05, "MEAN_MOTION_DOT": -1.9e-07, "MEAN_MOTION_DDOT": 0}, "tle": {"line1": "1 66924U 25285K   25352.66898245 -.00000019  00000+0  51963-4 0  9992", "line2": "2 66924  50.0074  90.9153 0119274 127.6467 233.5342 14.30504064  1773"}}, "geometry": {"type": "Point", "coordinates": [-15.351699750136108, -49.13994118828904]}}, {"type": "Feature", "properties": {"norad_id": 66925, "name": "STARLINK-35945", "group": "last-30-days", "lat": 45.26935121808931, "lon": 67.13550213014773, "alt_km": 321.3725487343172, "timestamp": "2025-12-19T04:59:47.032613+00:00", "meta": {"OBJECT_NAME": "STARLINK-35945", "OBJECT_ID": "2025-286A", "EPOCH": "2025-12-18T22:00:00.999936", "MEAN_MOTION": 15.8171491, "ECCENTRICITY": 8.557e-05, "INCLINATION": 53.1564, "RA_OF_ASC_NODE": 19.4048, "ARG_OF_PERICENTER": 85.8133, "MEAN_ANOMALY": 116.4265, "EPHEMERIS_TYPE": 0, "CLASSIFICATION_TYPE": "U", "NORAD_CAT_ID": 66925, "ELEMENT_SET_NO": 999, "REV_AT_EPOCH": 298, "BSTAR": -0.006862098, "MEAN_MOTION_DOT": -0.01246628, "MEAN_MOTION_DDOT": 0}, "tle": {"line1": "1 66925U 25286A   25352.91667824 -.01246628  00000+0 -68621-2 0  9996", "line2": "2 66925  53.1564  19.4048 0000855  85.8133 116.4265 15.81714910  2987"}}, "geometry": {"type": "Point", "coordinates": [67.13550213014773, 45.26935121808931]}}, {"type": "Feature", "properties": {"norad_id": 66926, "name": "STARLINK-35942", "group": "last-30-days", "lat": 47.51986464990641, "lon": 72.9037063856074, "alt_km": 321.1730905738659, "timestamp": "2025-12-19T04:59:47.032624+00:00", "meta": {"OBJECT_NAME": "STARLINK-35942", "OBJECT_ID": "2025-286B", "EPOCH": "2025-12-18T22:00:00.999936", "MEAN_MOTION": 15.81696636, "ECCENTRICITY": 8.525e-05, "INCLINATION": 53.1566, "RA_OF_ASC_NODE": 19.3949, "ARG_OF_PERICENTER": 96.8899, "MEAN_ANOMALY": 109.9455, "EPHEMERIS_TYPE": 0, "CLASSIFICATION_TYPE": "U", "NORAD_CAT_ID": 66926, "ELEMENT_SET_NO": 999, "REV_AT_EPOCH": 298, "BSTAR": -0.0069937042, "MEAN_MOTION_DOT": -0.01266752, "MEAN_MOTION_DDOT": 0}, "tle": {"line1": "1 66926U 25286B   25352.91667824 -.01266752  00000+0 -69937-2 0  9998", "line2": "2 66926  53.1566  19.3949 0000852  96.8899 109.9455 15.81696636  2989"}}, "geometry": {"type": "Point", "coordinates": [72.9037063856074, 47.51986464990641]}}]}